NORAD_CAT_ID,OBJECT_NAME,OBJECT_TYPE,EPOCH,MEAN_MOTION,ECCENTRICITY,INCLINATION,RA_OF_ASC_NODE,ARG_OF_PERICENTER,MEAN_ANOMALY,BSTAR,MEAN_MOTION_DOT,MEAN_MOTION_DDOT,TLE_LINE0,TLE_LINE1,TLE_LINE2,SEMIMAJOR_AXIS,PERIOD,APOGEE,PERIGEE,DECAYED
52567.0,STARLINK-3929,PAYLOAD,2022-11-03 04:14:42,15.08840533,0.0002311,53.218,207.186,38.7483,321.3675,1.8895e-05,1.2e-07,0.0,0 STARLINK-3929,1 52567U 22051AL  22307.17687712  .00000012  00000-0  18895-4 0  9996,2 52567  53.2180 207.1860 0002311  38.7483 321.3675 15.08840533 27092,6917.879,95.438,541.342,538.145,0.0
52567.0,STARLINK-3929,PAYLOAD,2022-11-03 16:57:46,15.08851762,0.0002159,53.2169,204.8087,33.7145,326.3984,0.00012843,1.757e-05,0.0,0 STARLINK-3929,1 52567U 22051AL  22307.70678293  .00001757  00000-0  12843-3 0  9992,2 52567  53.2169 204.8087 0002159  33.7145 326.3984 15.08851762 27177,6917.844,95.437,541.203,538.216,0.0
52567.0,STARLINK-3929,PAYLOAD,2022-11-04 10:26:59,15.08855571,0.0002406,53.216,201.5392,39.3827,320.7340000000001,0.00015026,2.105e-05,0.0,0 STARLINK-3929,1 52567U 22051AL  22308.43541538  .00002105  00000-0  15026-3 0  9998,2 52567  53.2160 201.5392 0002406  39.3827 320.7340 15.08855571 27216,6917.833000000001,95.437,541.362,538.033,0.0
52567.0,STARLINK-3929,PAYLOAD,2022-11-05 02:20:52,15.088362900000002,0.0001873,53.2163,198.5638,45.9077,314.2069,-9.6277e-06,-4.41e-06,0.0,0 STARLINK-3929,1 52567U 22051AL  22309.09782954 -.00000441  00000-0 -96277-5 0  9992,2 52567  53.2163 198.5638 0001873  45.9077 314.2069 15.08836290 27318,6917.892,95.438,541.052,538.461,0.0
52567.0,STARLINK-3929,PAYLOAD,2022-11-05 16:39:22,15.08825913,0.0002149,53.2152,195.8874,42.9401,317.1759,-0.0002247,-3.861e-05,0.0,0 STARLINK-3929,1 52567U 22051AL  22309.69400487 -.00003861  00000-0 -22470-3 0  9997,2 52567  53.2152 195.8874 0002149  42.9401 317.1759 15.08825913 27478,6917.9230000000025,95.438,541.275,538.302,0.0
52567.0,STARLINK-3929,PAYLOAD,2022-11-06 02:11:41,15.08821899,0.0002101,53.2158,194.1029,43.2146,316.9011,-0.00027899,-4.724e-05,0.0,0 STARLINK-3929,1 52567U 22051AL  22310.09145263 -.00004724  00000-0 -27899-3 0  9990,2 52567  53.2158 194.1029 0002101  43.2146 316.9011 15.08821899 27462,6917.936,95.439,541.254,538.347,0.0
52567.0,STARLINK-3929,PAYLOAD,2022-11-06 21:16:18,15.0882948,0.0002135,53.2162,190.5349,41.1354,318.9799,-1.9792e-05,-6.03e-06,0.0,0 STARLINK-3929,1 52567U 22051AL  22310.88632589 -.00000603  00000-0 -19792-4 0  9995,2 52567  53.2162 190.5349 0002135  41.1354 318.9799 15.08829480 27657,6917.913000000001,95.438,541.255,538.3009999999998,0.0
52567.0,STARLINK-3929,PAYLOAD,2022-11-06 22:51:41,15.0883057,0.0002173,53.2162,190.2379,39.8532,320.262,-7.6062e-06,-4.09e-06,0.0,0 STARLINK-3929,1 52567U 22051AL  22310.95256534 -.00000409  00000-0 -76062-5 0  9993,2 52567  53.2162 190.2379 0002173  39.8532 320.2620 15.08830570 27595,6917.909000000002,95.438,541.2769999999998,538.271,0.0
52567.0,STARLINK-3929,PAYLOAD,2022-11-08 01:53:15,15.08828957,0.0002306,53.2163,185.1819,41.6776,318.4391,0.00023523,3.456e-05,0.0,0 STARLINK-3929,1 52567U 22051AL  22312.07864983  .00003456  00000-0  23523-3 0  9996,2 52567  53.2163 185.1819 0002306  41.6776 318.4391 15.08828957 27834,6917.9140000000025,95.438,541.374,538.184,0.0
52567.0,STARLINK-3929,PAYLOAD,2022-11-08 08:14:46,15.08846626,0.0002272,53.216,183.9934,43.1566,316.9604,0.00028686,4.281e-05,0.0,0 STARLINK-3929,1 52567U 22051AL  22312.34359697  .00004281  00000-0  28686-3 0  9999,2 52567  53.2160 183.9934 0002272  43.1566 316.9604 15.08846626 27878,6917.86,95.437,541.297,538.153,0.0
52567.0,STARLINK-3929,PAYLOAD,2022-11-08 16:11:42,15.0885691,0.0002169,53.2157,182.5068,43.2033,316.9129,0.00022147,3.24e-05,0.0,0 STARLINK-3929,1 52567U 22051AL  22312.67479208  .00003240  00000-0  22147-3 0  9996,2 52567  53.2157 182.5068 0002169  43.2033 316.9129 15.08856910 27859,6917.829000000002,95.436,541.194,538.193,0.0
52567.0,STARLINK-3929,PAYLOAD,2022-11-09 08:05:33,15.088564300000002,0.0002204,53.2159,179.533,40.8462,319.2695,0.00017007,2.421e-05,0.0,0 STARLINK-3929,1 52567U 22051AL  22313.33718754  .00002421  00000-0  17007-3 0  9991,2 52567  53.2159 179.5330 0002204  40.8462 319.2695 15.08856430 27950,6917.83,95.437,541.22,538.17,0.0
52567.0,STARLINK-3929,PAYLOAD,2022-11-09 20:48:40,15.08831716,0.0002073,53.216,177.1543,41.7636,318.3514,-0.00027262,-4.623e-05,0.0,0 STARLINK-3929,1 52567U 22051AL  22313.86713732 -.00004623  00000-0 -27262-3 0  9992,2 52567  53.2160 177.1543 0002073  41.7636 318.3514 15.08831716 28107,6917.906,95.438,541.205,538.337,0.0
52567.0,STARLINK-3929,PAYLOAD,2022-11-10 01:34:50,15.08823638,0.0002204,53.2161,176.262,39.6894,320.4259,-0.00032685,-5.484e-05,0.0,0 STARLINK-3929,1 52567U 22051AL  22314.06586675 -.00005484  00000-0 -32685-3 0  9990,2 52567  53.2161 176.2620 0002204  39.6894 320.4259 15.08823638 28139,6917.93,95.439,541.32,538.271,0.0
52567.0,STARLINK-3929,PAYLOAD,2022-11-10 07:56:23,15.08822619,0.0002189,53.2157,175.0728,40.913,319.2026,-0.0003118,-5.245e-05,0.0,0 STARLINK-3929,1 52567U 22051AL  22314.33082775 -.00005245  00000-0 -31180-3 0  9996,2 52567  53.2157 175.0728 0002189  40.9130 319.2026 15.08822619 28103,6917.934,95.439,541.313,538.284,0.0
52567.0,STARLINK-3929,PAYLOAD,2022-11-10 20:39:26,15.08939829,0.0001544,53.2155,172.6935,40.4579,319.6528,-0.0017271,-0.00027745,0.0,0 STARLINK-3929,1 52567U 22051AL  22314.86072791 -.00027745  00000-0 -17271-2 0  9994,2 52567  53.2155 172.6935 0001544  40.4579 319.6528 15.08939829 28181,6917.575,95.431,540.508,538.372,0.0
52567.0,STARLINK-3929,PAYLOAD,2022-11-10 23:50:13,15.08921773,0.0001629,53.2159,172.0985,45.5839,314.5287,-0.0014609,-0.00023515,0.0,0 STARLINK-3929,1 52567U 22051AL  22314.99320617 -.00023515  00000-0 -14609-2 0  9994,2 52567  53.2159 172.0985 0001629  45.5839 314.5287 15.08921773 28278,6917.63,95.432,540.622,538.369,0.0
52567.0,STARLINK-3929,PAYLOAD,2022-11-11 07:47:10,15.08807283,0.0002218,53.2159,170.6119,42.1177,317.9985,7.0607e-05,8.35e-06,0.0,0 STARLINK-3929,1 52567U 22051AL  22315.32443221  .00000835  00000-0  70607-4 0  9999,2 52567  53.2159 170.6119 0002218  42.1177 317.9985 15.08807283 28253,6917.98,95.44,541.38,538.311,0.0
52567.0,STARLINK-3929,PAYLOAD,2022-11-11 14:08:43,15.08810615,0.0002073,53.2165,169.4214,38.5879,321.5261,0.00010598,1.398e-05,0.0,0 STARLINK-3929,1 52567U 22051AL  22315.58939354  .00001398  00000-0  10598-3 0  9991,2 52567  53.2165 169.4214 0002073  38.5879 321.5261 15.08810615 28362,6917.97,95.439,541.269,538.401,0.0
52567.0,STARLINK-3929,PAYLOAD,2022-11-11 20:30:15,15.08824281,0.000228,53.2162,168.2327,42.2167,317.9001,0.00029256,4.369e-05,0.0,0 STARLINK-3929,1 52567U 22051AL  22315.85434263  .00004369  00000-0  29256-3 0  9992,2 52567  53.2162 168.2327 0002280  42.2167 317.9001 15.08824281 28403,6917.928000000001,95.439,541.371,538.216,0.0
52567.0,STARLINK-3929,PAYLOAD,2022-11-12 13:59:29,15.08840013,0.0002437,53.217,164.9617,43.21,316.9083,0.00027816,4.141e-05,0.0,0 STARLINK-3929,1 52567U 22051AL  22316.58297864  .00004141  00000-0  27816-3 0  9995,2 52567  53.2170 164.9617 0002437  43.2100 316.9083 15.08840013 28511,6917.88,95.438,541.431,538.059,0.0
52567.0,STARLINK-3929,PAYLOAD,2022-11-12 20:21:02,15.088395000000002,0.0002327,53.2171,163.7722,41.9108,318.2062,0.00023905,3.518e-05,0.0,0 STARLINK-3929,1 52567U 22051AL  22316.84793988  .00003518  00000-0  23905-3 0  9994,2 52567  53.2171 163.7722 0002327  41.9108 318.2062 15.08839500 28484,6917.882,95.438,541.357,538.137,0.0
52567.0,STARLINK-3929,PAYLOAD,2022-11-13 07:28:44,15.08838914,0.000205,53.2167,161.6912,47.2532,312.8632,0.00018204,2.61e-05,0.0,0 STARLINK-3929,1 52567U 22051AL  22317.31162127  .00002610  00000-0  18204-3 0  9990,2 52567  53.2167 161.6912 0002050  47.2532 312.8632 15.08838914 28627,6917.884,95.438,541.1669999999998,538.331,0.0
52567.0,STARLINK-3929,PAYLOAD,2022-11-13 18:36:23,15.08960573,0.0003371,53.2164,159.6091,43.9663,316.1597,-0.0016063,-0.00025849,0.0,0 STARLINK-3929,1 52567U 22051AL  22317.77527563 -.00025849  00000-0 -16063-2 0  9990,2 52567  53.2164 159.6091 0003371  43.9663 316.1597 15.08960573 28695,6917.512,95.43,541.7090000000002,537.045,0.0
52567.0,STARLINK-3929,PAYLOAD,2022-11-14 04:08:45,15.0884381,0.0002328,53.2163,157.8254,43.3022,316.8153,-6.9151e-05,-1.389e-05,0.0,0 STARLINK-3929,1 52567U 22051AL  22318.17274550 -.00001389  00000-0 -69151-4 0  9991,2 52567  53.2163 157.8254 0002328  43.3022 316.8153 15.08843810 28755,6917.869000000002,95.437,541.344,538.123,0.0
52567.0,STARLINK-3929,PAYLOAD,2022-11-14 16:51:49,15.08847351,0.0002308,53.2158,155.4463,43.8855,316.232,-1.9127e-05,-5.93e-06,0.0,0 STARLINK-3929,1 52567U 22051AL  22318.70265787 -.00000593  00000-0 -19127-4 0  9996,2 52567  53.2158 155.4463 0002308  43.8855 316.2320 15.08847351 28767,6917.858,95.437,541.32,538.126,0.0
52567.0,STARLINK-3929,PAYLOAD,2022-11-14 20:02:35,15.08846537,0.00023,53.216,154.8515,43.7513,316.3661,-2.6824e-05,-7.15e-06,0.0,0 STARLINK-3929,1 52567U 22051AL  22318.83513795 -.00000715  00000-0 -26824-4 0  9993,2 52567  53.2160 154.8515 0002300  43.7513 316.3661 15.08846537 28857,6917.86,95.437,541.317,538.134,0.0
52567.0,STARLINK-3929,PAYLOAD,2022-11-15 13:31:50,15.08841873,0.0002299,53.2157,151.5801,42.9476,317.1696,7.1702e-05,8.53e-06,0.0,0 STARLINK-3929,1 52567U 22051AL  22319.56377405  .00000853  00000-0  71702-4 0  9996,2 52567  53.2157 151.5801 0002299  42.9476 317.1696 15.08841873 28890,6917.875,95.437,541.33,538.149,0.0
52567.0,STARLINK-3929,PAYLOAD,2022-11-15 19:53:23,15.08834304,0.0002302,53.2161,150.3903,43.2695,316.8478,1.1114e-05,-1.11e-06,0.0,0 STARLINK-3929,1 52567U 22051AL  22319.82874095 -.00000111  00000-0  11114-4 0  9991,2 52567  53.2161 150.3903 0002302  43.2695 316.8478 15.08834304 29006,6917.898,95.438,541.355,538.17,0.0
